RADARSAT-2              
1 32382U 07061A   26188.18942378  .00000189  00000+0  90258-4 0  9994
2 32382  98.5782 194.8363 0001322  84.4472 275.6861 14.29982485968819
