{"fetched_at":"2026-07-07T18:29:43.264Z","source":"https://celestrak.org/NORAD/elements/gp.php?NAME=RADARSAT&FORMAT=JSON","constellation":"radarsat-2","records":[{"OBJECT_NAME":"RADARSAT-2","OBJECT_ID":"2007-061A","EPOCH":"2026-07-07T04:32:46.214592","CLASSIFICATION_TYPE":"U","MEAN_MOTION":14.29982485,"ECCENTRICITY":0.0001322,"INCLINATION":98.5782,"RA_OF_ASC_NODE":194.8363,"ARG_OF_PERICENTER":84.4472,"MEAN_ANOMALY":275.6861,"EPHEMERIS_TYPE":0,"NORAD_CAT_ID":32382,"ELEMENT_SET_NO":999,"REV_AT_EPOCH":96881,"BSTAR":0.000090258,"MEAN_MOTION_DOT":0.00000189,"MEAN_MOTION_DDOT":0}]}
